NORAD_CAT_ID,OBJECT_NAME,OBJECT_TYPE,EPOCH,MEAN_MOTION,ECCENTRICITY,INCLINATION,RA_OF_ASC_NODE,ARG_OF_PERICENTER,MEAN_ANOMALY,BSTAR,MEAN_MOTION_DOT,MEAN_MOTION_DDOT,TLE_LINE0,TLE_LINE1,TLE_LINE2,SEMIMAJOR_AXIS,PERIOD,APOGEE,PERIGEE,DECAYED
53820.0,STARLINK-4758,PAYLOAD,2023-01-06 12:25:23,15.08851,0.0001493,53.2198,103.5722,49.7532,310.3591,6.0499e-06,-1.92e-06,0.0,0 STARLINK-4758,1 53820U 22114C   23006.51763003 -.00000192  00000-0  60499-5 0  9990,2 53820  53.2198 103.5722 0001493  49.7532 310.3591 15.08851000 17441,6917.847,95.437,540.745,538.679,0.0
53820.0,STARLINK-4758,PAYLOAD,2023-01-06 23:33:05,15.08852532,0.0001583,53.2219,101.4888,34.6138,325.4957,-3.1391e-05,-7.88e-06,0.0,0 STARLINK-4758,1 53820U 22114C   23006.98130814 -.00000788  00000-0 -31391-4 0  9999,2 53820  53.2219 101.4888 0001583  34.6138 325.4957 15.08852532 18052,6917.842,95.437,540.802,538.612,0.0
53820.0,STARLINK-4758,PAYLOAD,2023-01-07 12:16:12,15.08816004,0.0001547,53.2201,99.1119,42.2226,317.8885,5.4779e-05,5.83e-06,0.0,0 STARLINK-4758,1 53820U 22114C   23007.51125478  .00000583  00000-0  54779-4 0  9995,2 53820  53.2201  99.1119 0001547  42.2226 317.8885 15.08816004 17593,6917.9540000000015,95.439,540.889,538.749,0.0
53820.0,STARLINK-4758,PAYLOAD,2023-01-08 12:06:58,15.08840349,0.0001411,53.2206,94.6507,41.871,318.2390000000001,2.5001e-05,1.1e-06,0.0,0 STARLINK-4758,1 53820U 22114C   23008.50484300  .00000110  00000-0  25001-4 0  9999,2 53820  53.2206  94.6507 0001411  41.8710 318.2390 15.08840349 17744,6917.879,95.438,540.72,538.768,0.0
53820.0,STARLINK-4758,PAYLOAD,2023-01-09 11:57:45,15.08837647,0.0001313,53.2206,90.1906,45.4042,314.7057,0.00014932,2.089e-05,0.0,0 STARLINK-4758,1 53820U 22114C   23009.49843980  .00002089  00000-0  14932-3 0  9998,2 53820  53.2206  90.1906 0001313  45.4042 314.7057 15.08837647 18432,6917.888000000001,95.438,540.661,538.844,0.0
53820.0,STARLINK-4758,PAYLOAD,2023-01-10 08:37:46,15.08835146,0.0001315999999999,53.221,86.3248,48.9941,311.1165,-1.7819e-05,-5.71e-06,0.0,0 STARLINK-4758,1 53820U 22114C   23010.35956827 -.00000571  00000-0 -17819-4 0  9994,2 53820  53.2210  86.3248 0001316  48.9941 311.1165 15.08835146 18020,6917.895,95.438,540.6709999999998,538.85,0.0
53820.0,STARLINK-4758,PAYLOAD,2023-01-10 11:48:32,15.08846625,0.0001328,53.2202,85.7303,59.154,300.9583,6.8081e-05,7.96e-06,0.0,0 STARLINK-4758,1 53820U 22114C   23010.49203893  .00000796  00000-0  68081-4 0  9991,2 53820  53.2202  85.7303 0001328  59.1540 300.9583 15.08846625 18044,6917.86,95.437,540.644,538.806,0.0
53820.0,STARLINK-4758,PAYLOAD,2023-01-10 14:59:18,15.08848355,0.0001354,53.2203,85.1354,59.3224,300.7902,6.0457e-05,6.75e-06,0.0,0 STARLINK-4758,1 53820U 22114C   23010.62451738  .00000675  00000-0  60457-4 0  9994,2 53820  53.2203  85.1354 0001354  59.3224 300.7902 15.08848355 18602,6917.855,95.437,540.6569999999998,538.783,0.0
53820.0,STARLINK-4758,PAYLOAD,2023-01-11 11:39:19,15.08845893,0.0001234,53.2187,81.2732,69.5474,290.5651,2.683e-05,1.39e-06,0.0,0 STARLINK-4758,1 53820U 22114C   23011.48563909  .00000139  00000-0  26830-4 0  9995,2 53820  53.2187  81.2732 0001234  69.5474 290.5651 15.08845893 18732,6917.861999999999,95.437,540.581,538.874,0.0
53820.0,STARLINK-4758,PAYLOAD,2023-01-11 21:11:38,15.088359400000002,0.000143,53.2202,79.4868,69.3419,290.7727,3.5136e-05,2.71e-06,0.0,0 STARLINK-4758,1 53820U 22114C   23011.88308594  .00000271  00000-0  35136-4 0  9992,2 53820  53.2202  79.4868 0001430  69.3419 290.7727 15.08835940 18798,6917.893,95.438,540.747,538.769,0.0
53820.0,STARLINK-4758,PAYLOAD,2023-01-12 11:30:06,15.08843974,0.0001326,53.2199,76.8101,71.1349,288.9786,-8.988700000000001e-06,-4.31e-06,0.0,0 STARLINK-4758,1 53820U 22114C   23012.47924233 -.00000431  00000-0 -89887-5 0  9995,2 53820  53.2199  76.8101 0001326  71.1349 288.9786 15.08843974 18342,6917.868,95.437,540.651,538.816,0.0
53820.0,STARLINK-4758,PAYLOAD,2023-01-12 21:02:24,15.08850188,8.99e-05,53.2197,75.0263,71.0962,289.0128,3.1412e-05,2.12e-06,0.0,0 STARLINK-4758,1 53820U 22114C   23012.87667530  .00000212  00000-0  31412-4 0  9998,2 53820  53.2197  75.0263 0000899  71.0962 289.0128 15.08850188 18408,6917.849,95.437,540.336,539.092,0.0
53820.0,STARLINK-4758,PAYLOAD,2023-01-13 12:56:16,15.08850781,9.4e-05,53.2195,72.0547,100.4053,259.7045,6.002300000000001e-05,6.68e-06,0.0,0 STARLINK-4758,1 53820U 22114C   23013.53907477  .00000668  00000-0  60023-4 0  9994,2 53820  53.2195  72.0547 0000940 100.4053 259.7045 15.08850781 19045,6917.847,95.437,540.363,539.062,0.0
53820.0,STARLINK-4758,PAYLOAD,2023-01-13 20:53:12,15.08835864,0.0001009,53.2199,70.5665,83.8624,276.2483,-1.3796e-05,-5.07e-06,0.0,0 STARLINK-4758,1 53820U 22114C   23013.87028718 -.00000507  00000-0 -13796-4 0  9992,2 53820  53.2199  70.5665 0001009  83.8624 276.2483 15.08835864 19098,6917.893,95.438,540.456,539.06,0.0
53820.0,STARLINK-4758,PAYLOAD,2023-01-14 04:50:08,15.088344,0.0001079,53.2204,69.0831,100.8613,259.2501,4.346899999999999e-05,4.04e-06,0.0,0 STARLINK-4758,1 53820U 22114C   23014.20148851  .00000404  00000-0  43469-4 0  9995,2 53820  53.2204  69.0831 0001079 100.8613 259.2501 15.08834400 18601,6917.898,95.438,540.509,539.016,0.0
53820.0,STARLINK-4758,PAYLOAD,2023-01-14 11:11:40,15.08848764,0.0001087,53.2202,67.8905,94.5306,265.5811,1.5543e-05,-4e-07,0.0,0 STARLINK-4758,1 53820U 22114C   23014.46644091 -.00000040  00000-0  15543-4 0  9999,2 53820  53.2202  67.8905 0001087  94.5306 265.5811 15.08848764 18640,6917.854,95.437,540.471,538.967,0.0
53820.0,STARLINK-4758,PAYLOAD,2023-01-14 23:54:46,15.08829848,0.0001149999999999,53.2211,65.5116,97.4857,262.6266,8.0068e-06,-1.6e-06,0.0,0 STARLINK-4758,1 53820U 22114C   23014.99637357 -.00000160  00000-0  80068-5 0  9992,2 53820  53.2211  65.5116 0001150  97.4857 262.6266 15.08829848 18726,6917.911,95.438,540.572,538.981,0.0
53820.0,STARLINK-4758,PAYLOAD,2023-01-15 12:37:51,15.08841833,0.0001072999999999,53.2195,63.1325,103.4668,256.6444,-2.4876e-05,-6.84e-06,0.0,0 STARLINK-4758,1 53820U 22114C   23015.52628898 -.00000684  00000-0 -24876-4 0  9998,2 53820  53.2195  63.1325 0001073 103.4668 256.6444 15.08841833 18803,6917.875,95.437,540.482,538.997,0.0
53820.0,STARLINK-4758,PAYLOAD,2023-01-15 20:34:46,15.08844218,0.0001068,53.2198,61.6454,105.0436,255.0675,2.674e-06,-2.45e-06,0.0,0 STARLINK-4758,1 53820U 22114C   23015.85748682 -.00000245  00000-0  26740-5 0  9993,2 53820  53.2198  61.6454 0001068 105.0436 255.0675 15.08844218 19391,6917.866999999999,95.437,540.471,538.994,0.0
53820.0,STARLINK-4758,PAYLOAD,2023-01-16 09:17:50,15.08851627,0.000105,53.2217,59.2652,119.3356,240.7741,0.00024279,3.58e-05,0.0,0 STARLINK-4758,1 53820U 22114C   23016.38739383  .00003580  00000-0  24279-3 0  9997,2 53820  53.2217  59.2652 0001050 119.3356 240.7741 15.08851627 18932,6917.845,95.437,540.436,538.9830000000001,0.0
53820.0,STARLINK-4758,PAYLOAD,2023-01-17 02:47:07,15.08826616,6.69e-05,53.2215,55.9987,94.9224,265.1845,-7.1041e-05,-1.418e-05,0.0,0 STARLINK-4758,1 53820U 22114C   23017.11606294 -.00001418  00000-0 -71041-4 0  9993,2 53820  53.2215  55.9987 0000669  94.9224 265.1845 15.08826616 19040,6917.920999999999,95.438,540.249,539.323,0.0
53820.0,STARLINK-4758,PAYLOAD,2023-01-17 09:08:41,15.08816576,6.68e-05,53.2218,54.8087,103.5168,256.5899,-0.00014891,-2.655e-05,0.0,0 STARLINK-4758,1 53820U 22114C   23017.38103379 -.00002655  00000-0 -14891-3 0  9991,2 53820  53.2218  54.8087 0000668 103.5168 256.5899 15.08816576 19086,6917.951999999999,95.439,540.279,539.355,0.0
53820.0,STARLINK-4758,PAYLOAD,2023-01-17 23:27:08,15.08828625,5.94e-05,53.2213,52.1298,116.9192,243.1861,-4.3808999999999993e-05,-9.84e-06,0.0,0 STARLINK-4758,1 53820U 22114C   23017.97718703 -.00000984  00000-0 -43809-4 0  9994,2 53820  53.2213  52.1298 0000594 116.9192 243.1861 15.08828625 19178,6917.915,95.438,540.191,539.369,0.0
53820.0,STARLINK-4758,PAYLOAD,2023-01-18 08:59:25,15.0886143,0.0001217,53.2209,50.3449,107.7544,252.3581,0.00013337,1.837e-05,0.0,0 STARLINK-4758,1 53820U 22114C   23018.37460175  .00001837  00000-0  13337-3 0  9994,2 53820  53.2209  50.3449 0001217 107.7544 252.3581 15.08861430 19232,6917.815,95.436,540.5219999999999,538.8380000000001,0.0
53820.0,STARLINK-4758,PAYLOAD,2023-01-18 18:31:44,15.08860351,0.0001139,53.22,48.5633,107.5785,252.5332,2.2164e-05,6.5e-07,0.0,0 STARLINK-4758,1 53820U 22114C   23018.77204155  .00000065  00000-0  22164-4 0  9993,2 53820  53.2200  48.5633 0001139 107.5785 252.5332 15.08860351 19838,6917.818,95.436,540.471,538.895,0.0
53820.0,STARLINK-4758,PAYLOAD,2023-01-19 02:28:41,15.08829536,0.0001205,53.2201,47.0795,119.4571,240.6542,0.00030373,4.548e-05,0.0,0 STARLINK-4758,1 53820U 22114C   23019.10325764  .00004548  00000-0  30373-3 0  9991,2 53820  53.2201  47.0795 0001205 119.4571 240.6542 15.08829536 19348,6917.911999999999,95.438,540.611,538.944,0.0
53820.0,STARLINK-4758,PAYLOAD,2023-01-19 08:50:13,15.08838675,0.0001165999999999,53.2185,45.8894,108.2329,251.879,0.00035851,5.422e-05,0.0,0 STARLINK-4758,1 53820U 22114C   23019.36821080  .00005422  00000-0  35851-3 0  9999,2 53820  53.2185  45.8894 0001166 108.2329 251.8790 15.08838675 19385,6917.884,95.438,540.556,538.943,0.0
53820.0,STARLINK-4758,PAYLOAD,2023-01-19 12:00:59,15.0884617,0.0001036999999999,53.2187,45.2896,104.1774,255.9334,0.00037483,5.684e-05,0.0,0 STARLINK-4758,1 53820U 22114C   23019.50068484  .00005684  00000-0  37483-3 0  9999,2 53820  53.2187  45.2896 0001037 104.1774 255.9334 15.08846170 19949,6917.861999999999,95.437,540.444,539.009,0.0
53820.0,STARLINK-4758,PAYLOAD,2023-01-19 18:22:33,15.08829933,0.0001896,53.2197,44.1047,100.3188,259.8018,9.3991e-05,1.208e-05,0.0,0 STARLINK-4758,1 53820U 22114C   23019.76566598  .00001208  00000-0  93991-4 0  9991,2 53820  53.2197  44.1047 0001896 100.3188 259.8018 15.08829933 19441,6917.911,95.438,541.0880000000001,538.465,0.0
